{
  "type": "FeatureCollection",
  "features": [
    {
      "type": "Feature",
      "properties": {
        "norad_id": 66365,
        "name": "STARLINK-35827",
        "group": "last-30-days",
        "lat": 22.75714455966397,
        "lon": -27.609278684017706,
        "alt_km": 393.8678931664854,
        "timestamp": "2025-12-04T21:36:14.650817+00:00",
        "meta_object_name": "STARLINK-35827",
        "meta_object_id": "2025-254T",
        "meta_epoch": "2025-12-04T14:00:01.000224",
        "meta_mean_motion": 15.58275955,
        "meta_eccentricity": 0.00012604,
        "meta_inclination": 53.1588,
        "meta_ra_of_asc_node": 315.5937,
        "meta_arg_of_pericenter": 70.6521,
        "meta_mean_anomaly": 340.8607,
        "meta_ephemeris_type": 0,
        "meta_classification_type": "U",
        "meta_norad_cat_id": 66365,
        "meta_element_set_no": 999,
        "meta_rev_at_epoch": 558,
        "meta_bstar": -0.030818214,
        "meta_mean_motion_dot": -0.02114675,
        "meta_mean_motion_ddot": 0,
        "tle_line1": "1 66365U 25254T   25338.58334491 -.02114675  00000+0 -30818-1 0  9990",
        "tle_line2": "2 66365  53.1588 315.5937 0001260  70.6521 340.8607 15.58275955  5589"
      },
      "geometry": {
        "type": "Point",
        "coordinates": [
          -27.609278684017706,
          22.75714455966397
        ]
      }
    },
    {
      "type": "Feature",
      "properties": {
        "norad_id": 66366,
        "name": "STARLINK-35845",
        "group": "last-30-days",
        "lat": 21.296116081583843,
        "lon": -28.943739525905244,
        "alt_km": 394.2063683352453,
        "timestamp": "2025-12-04T21:36:14.650828+00:00",
        "meta_object_name": "STARLINK-35845",
        "meta_object_id": "2025-254U",
        "meta_epoch": "2025-12-04T14:00:01.000224",
        "meta_mean_motion": 15.58272469,
        "meta_eccentricity": 0.00011127,
        "meta_inclination": 53.1589,
        "meta_ra_of_asc_node": 315.5972,
        "meta_arg_of_pericenter": 71.1616,
        "meta_mean_anomaly": 338.4385,
        "meta_ephemeris_type": 0,
        "meta_classification_type": "U",
        "meta_norad_cat_id": 66366,
        "meta_element_set_no": 999,
        "meta_rev_at_epoch": 561,
        "meta_bstar": -0.030779584,
        "meta_mean_motion_dot": -0.02111966,
        "meta_mean_motion_ddot": 0,
        "tle_line1": "1 66366U 25254U   25338.58334491 -.02111966  00000+0 -30780-1 0  9999",
        "tle_line2": "2 66366  53.1589 315.5972 0001112  71.1616 338.4385 15.58272469  5614"
      },
      "geometry": {
        "type": "Point",
        "coordinates": [
          -28.943739525905244,
          21.296116081583843
        ]
      }
    },
    {
      "type": "Feature",
      "properties": {
        "norad_id": 66367,
        "name": "STARLINK-35846",
        "group": "last-30-days",
        "lat": 24.209429224915308,
        "lon": -26.244820771467445,
        "alt_km": 393.6402951122236,
        "timestamp": "2025-12-04T21:36:14.650838+00:00",
        "meta_object_name": "STARLINK-35846",
        "meta_object_id": "2025-254V",
        "meta_epoch": "2025-12-04T14:00:01.000224",
        "meta_mean_motion": 15.5827224,
        "meta_eccentricity": 0.00011797,
        "meta_inclination": 53.1588,
        "meta_ra_of_asc_node": 315.5889,
        "meta_arg_of_pericenter": 69.1704,
        "meta_mean_anomaly": 344.2606,
        "meta_ephemeris_type": 0,
        "meta_classification_type": "U",
        "meta_norad_cat_id": 66367,
        "meta_element_set_no": 999,
        "meta_rev_at_epoch": 556,
        "meta_bstar": -0.030713685,
        "meta_mean_motion_dot": -0.02107969,
        "meta_mean_motion_ddot": 0,
        "tle_line1": "1 66367U 25254V   25338.58334491 -.02107969  00000+0 -30714-1 0  9995",
        "tle_line2": "2 66367  53.1588 315.5889 0001179  69.1704 344.2606 15.58272240  5561"
      },
      "geometry": {
        "type": "Point",
        "coordinates": [
          -26.244820771467445,
          24.209429224915308
        ]
      }
    },
    {
      "type": "Feature",
      "properties": {
        "norad_id": 66368,
        "name": "STARLINK-34861",
        "group": "last-30-days",
        "lat": 17.19985596696959,
        "lon": 120.372635659055,
        "alt_km": 343.9309799393968,
        "timestamp": "2025-12-04T21:36:14.650848+00:00",
        "meta_object_name": "STARLINK-34861",
        "meta_object_id": "2025-254W",
        "meta_epoch": "2025-12-04T10:16:14.024640",
        "meta_mean_motion": 15.74306271,
        "meta_eccentricity": 9.468e-05,
        "meta_inclination": 53.1568,
        "meta_ra_of_asc_node": 316.1388,
        "meta_arg_of_pericenter": 118.9457,
        "meta_mean_anomaly": 241.1658,
        "meta_ephemeris_type": 0,
        "meta_classification_type": "U",
        "meta_norad_cat_id": 66368,
        "meta_element_set_no": 999,
        "meta_rev_at_epoch": 437,
        "meta_bstar": 0.0015340414,
        "meta_mean_motion_dot": 0.00231487,
        "meta_mean_motion_ddot": 0,
        "tle_line1": "1 66368U 25254W   25338.42794010  .00231487  00000+0  15340-2 0  9994",
        "tle_line2": "2 66368  53.1568 316.1388 0000946 118.9457 241.1658 15.74306271  4370"
      },
      "geometry": {
        "type": "Point",
        "coordinates": [
          120.372635659055,
          17.19985596696959
        ]
      }
    },
    {
      "type": "Feature",
      "properties": {
        "norad_id": 66369,
        "name": "STARLINK-35795",
        "group": "last-30-days",
        "lat": 18.087389326817696,
        "lon": 119.6201763140841,
        "alt_km": 341.3231737969536,
        "timestamp": "2025-12-04T21:36:14.650858+00:00",
        "meta_object_name": "STARLINK-35795",
        "meta_object_id": "2025-254X",
        "meta_epoch": "2025-12-04T02:39:36.815328",
        "meta_mean_motion": 15.74349696,
        "meta_eccentricity": 0.00030446,
        "meta_inclination": 53.1567,
        "meta_ra_of_asc_node": 317.7168,
        "meta_arg_of_pericenter": 147.1731,
        "meta_mean_anomaly": 212.9479,
        "meta_ephemeris_type": 0,
        "meta_classification_type": "U",
        "meta_norad_cat_id": 66369,
        "meta_element_set_no": 999,
        "meta_rev_at_epoch": 432,
        "meta_bstar": 0.0021458163,
        "meta_mean_motion_dot": 0.00328479,
        "meta_mean_motion_ddot": 0,
        "tle_line1": "1 66369U 25254X   25338.11084277  .00328479  00000+0  21458-2 0  9993",
        "tle_line2": "2 66369  53.1567 317.7168 0003044 147.1731 212.9479 15.74349696  4324"
      },
      "geometry": {
        "type": "Point",
        "coordinates": [
          119.6201763140841,
          18.087389326817696
        ]
      }
    },
    {
      "type": "Feature",
      "properties": {
        "norad_id": 66370,
        "name": "STARLINK-35824",
        "group": "last-30-days",
        "lat": 14.62149927572286,
        "lon": 122.50678837258779,
        "alt_km": 342.8444190182472,
        "timestamp": "2025-12-04T21:36:14.650871+00:00",
        "meta_object_name": "STARLINK-35824",
        "meta_object_id": "2025-254Y",
        "meta_epoch": "2025-12-04T02:38:39.081120",
        "meta_mean_motion": 15.74459234,
        "meta_eccentricity": 3.668e-05,
        "meta_inclination": 53.1568,
        "meta_ra_of_asc_node": 317.7129,
        "meta_arg_of_pericenter": 67.6917,
        "meta_mean_anomaly": 292.4142,
        "meta_ephemeris_type": 0,
        "meta_classification_type": "U",
        "meta_norad_cat_id": 66370,
        "meta_element_set_no": 999,
        "meta_rev_at_epoch": 432,
        "meta_bstar": 0.0031685267,
        "meta_mean_motion_dot": 0.00497732,
        "meta_mean_motion_ddot": 0,
        "tle_line1": "1 66370U 25254Y   25338.11017455  .00497732  00000+0  31685-2 0  9991",
        "tle_line2": "2 66370  53.1568 317.7129 0000366  67.6917 292.4142 15.74459234  4320"
      },
      "geometry": {
        "type": "Point",
        "coordinates": [
          122.50678837258779,
          14.62149927572286
        ]
      }
    },
    {
      "type": "Feature",
      "properties": {
        "norad_id": 66371,
        "name": "STARLINK-35804",
        "group": "last-30-days",
        "lat": -7.822486546330314,
        "lon": 139.64672428845853,
        "alt_km": 305.6175875932713,
        "timestamp": "2025-12-04T21:36:14.650883+00:00",
        "meta_object_name": "STARLINK-35804",
        "meta_object_id": "2025-254Z",
        "meta_epoch": "2025-12-04T05:40:01.916256",
        "meta_mean_motion": 15.78402207,
        "meta_eccentricity": 0.0022163,
        "meta_inclination": 53.1567,
        "meta_ra_of_asc_node": 317.0759,
        "meta_arg_of_pericenter": 317.8316,
        "meta_mean_anomaly": 42.1,
        "meta_ephemeris_type": 0,
        "meta_classification_type": "U",
        "meta_norad_cat_id": 66371,
        "meta_element_set_no": 999,
        "meta_rev_at_epoch": 434,
        "meta_bstar": 0.042320577,
        "meta_mean_motion_dot": 0.0928972,
        "meta_mean_motion_ddot": 0,
        "tle_line1": "1 66371U 25254Z   25338.23613329  .09289720  00000+0  42321-1 0  9990",
        "tle_line2": "2 66371  53.1567 317.0759 0022163 317.8316  42.1000 15.78402207  4341"
      },
      "geometry": {
        "type": "Point",
        "coordinates": [
          139.64672428845853,
          -7.822486546330314
        ]
      }
    }
  ]
}